*******************************************************************************
 Revised: Jun 17, 2016             Titania / (Uranus)                       703

 SATELLITE PHYSICAL PROPERTIES:
  Radius (km)           = 788.9  +- 1.8     Density (g cm^-3)   =  1.71 +- 0.05
  Mass (10^20 kg )      =  35.27 +- 0.90    Geometric Albedo    =  0.27 
                                            V(1,0)              = +1.02

 SATELLITE ORBITAL DATA:
  Semi-major axis, a (km) = 435.8 (10^3)    Orbital period      = 8.706 d
  Eccentricity, e         =   0.0022        Rotational period   = Synchronous
  Inclination, i  (deg)   =   0.10
*******************************************************************************
 
 
*******************************************************************************
Ephemeris / WWW_USER Sat Nov 11 07:04:46 2017 Pasadena, USA      / Horizons    
*******************************************************************************
Target body name: Titania (703)                   {source: ura111}
Center body name: Solar System Barycenter (0)     {source: DE431mx}
Center-site name: BODY CENTER
*******************************************************************************
Start time      : A.D. 2017-Jul-10 00:00:00.0000 TDB
Stop  time      : A.D. 2020-Aug-13 00:00:00.0000 TDB
Step-size       : 1440 minutes
*******************************************************************************
Center geodetic : 0.00000000,0.00000000,0.0000000 {E-lon(deg),Lat(deg),Alt(km)}
Center cylindric: 0.00000000,0.00000000,0.0000000 {E-lon(deg),Dxy(km),Dz(km)}
Center radii    : (undefined)                                                  
Output units    : KM-S                                                         
Output type     : GEOMETRIC cartesian states
Output format   : 3 (position, velocity, LT, range, range-rate)
Reference frame : ICRF/J2000.0                                                 
Coordinate systm: Ecliptic and Mean Equinox of Reference Epoch                 
*******************************************************************************
            JDTDB,            Calendar Date (TDB),                      X,                      Y,                      Z,                     VX,                     VY,                     VZ,                     LT,                     RG,                     RR,
**************************************************************************************************************************************************************************************************************************************************************************
$$SOE
2458700.500000000, A.D. 2019-Aug-05 00:00:00.0000,  2.476870439580930E+09,  1.634922832892429E+09, -2.640917641426086E+07, -7.115187204660273E+00,  5.891222007842301E+00, -1.372238647722750E+00,  9.899920080935983E+03,  2.967921375067357E+09, -2.680483337378509E+00,
2458701.500000000, A.D. 2019-Aug-06 00:00:00.0000,  2.476240321772692E+09,  1.635450523670831E+09, -2.641792556134033E+07, -7.163260124611304E+00,  6.258465539438156E+00,  1.184821191038443E+00,  9.899136223621259E+03,  2.967686380556255E+09, -2.538625165869188E+00,
2458702.500000000, A.D. 2019-Aug-07 00:00:00.0000,  2.475681984685545E+09,  1.635991161485907E+09, -2.622092246953428E+07, -5.527958225796143E+00,  6.177779171682111E+00,  3.179935895166991E+00,  9.898570534688037E+03,  2.967516791280500E+09, -1.234047043150574E+00,
2458703.500000000, A.D. 2019-Aug-08 00:00:00.0000,  2.475310144684168E+09,  1.636506150246231E+09, -2.591416683752167E+07, -3.037466281147751E+00,  5.691307940801012E+00,  3.615333342080435E+00,  9.898474051099824E+03,  2.967487866228433E+09,  5.733809449295452E-01,
2458704.500000000, A.D. 2019-Aug-09 00:00:00.0000,  2.475145620171532E+09,  1.636969905527932E+09, -2.564791926630843E+07, -9.383209753264126E-01,  5.043810575515155E+00,  2.285604154503072E+00,  9.898861784383964E+03,  2.967604105742734E+09,  1.979867889624593E+00,
2458705.500000000, A.D. 2019-Aug-10 00:00:00.0000,  2.475106158482201E+09,  1.637382410077724E+09, -2.555132477932954E+07, -2.670371455154710E-01,  4.556250048580467E+00, -1.403973203538069E-01,  9.899508295359299E+03,  2.967797924857154E+09,  2.292260427370752E+00,
2458706.500000000, A.D. 2019-Aug-11 00:00:00.0000,  2.475048017922108E+09,  1.637768940128810E+09, -2.566914342488718E+07, -1.352139653602831E+00,  4.468539078212403E+00, -2.462728488870797E+00,  9.900061358749037E+03,  2.967963729090193E+09,  1.359531463168796E+00,
2458707.500000000, A.D. 2019-Aug-12 00:00:00.0000,  2.474836614947884E+09,  1.638167584110923E+09, -2.594016833787704E+07, -3.661905310218667E+00,  4.824831325220636E+00, -3.531647814454078E+00,  9.900215048111677E+03,  2.968009804001987E+09, -3.595417798707859E-01,
2458708.500000000, A.D. 2019-Aug-13 00:00:00.0000,  2.474412799851831E+09,  1.638610560450744E+09, -2.622683470325220E+07, -6.054225133398555E+00,  5.450160136408014E+00, -2.806570959311002E+00,  9.899860419286331E+03,  2.967903488954760E+09, -2.013662087466386E+00,
2458709.500000000, A.D. 2019-Aug-14 00:00:00.0000,  2.473823161208107E+09,  1.639108111511518E+09, -2.638283506550348E+07, -7.330120167595636E+00,  6.032350765005297E+00, -6.386815961094965E-01,  9.899141863111832E+03,  2.967688071232995E+09, -2.772830414082376E+00,
2458710.500000000, A.D. 2019-Aug-15 00:00:00.0000,  2.473197844160284E+09,  1.639643073967505E+09, -2.632673306039083E+07, -6.843118378325943E+00,  6.277665751719313E+00,  1.885987571412533E+00,  9.898387411956657E+03,  2.967461892466745E+09, -2.251387409027164E+00,
2458711.500000000, A.D. 2019-Aug-16 00:00:00.0000,  2.472685106183424E+09,  1.640179394524225E+09, -2.608373615739965E+07, -4.840377014925076E+00,  6.062626503701514E+00,  3.496927182961225E+00,  9.897943595103210E+03,  2.967328839521348E+09, -7.131484663470933E-01,
2458712.500000000, A.D. 2019-Aug-17 00:00:00.0000,  2.472376205827352E+09,  1.640680421176852E+09, -2.577274104495859E+07, -2.332796866330024E+00,  5.496955506784113E+00,  3.392899751318297E+00,  9.897999879697920E+03,  2.967345713218343E+09,  1.066189042261753E+00,
2458713.500000000, A.D. 2019-Aug-18 00:00:00.0000,  2.472260142941391E+09,  1.641127295248472E+09, -2.554583393228149E+07, -5.704576085571658E-01,  4.863794567769776E+00,  1.637357273997357E+00,  9.898495052496248E+03,  2.967494162288689E+09,  2.200495906866108E+00,
2458714.500000000, A.D. 2019-Aug-19 00:00:00.0000,  2.472230357993501E+09,  1.641528081227163E+09, -2.551250735014212E+07, -4.214263116050985E-01,  4.476180091158436E+00, -8.932818478640411E-01,  9.899150733796403E+03,  2.967690730597327E+09,  2.132534293253239E+00,
2458715.500000000, A.D. 2019-Aug-20 00:00:00.0000,  2.472137910668244E+09,  1.641913568128058E+09, -2.568626209962189E+07, -1.958752768030813E+00,  4.525080908519822E+00, -2.948259007405879E+00,  9.899610166851380E+03,  2.967828465162165E+09,  8.973613367364471E-01,
2458716.500000000, A.D. 2019-Aug-21 00:00:00.0000,  2.471864584636449E+09,  1.642322139419582E+09, -2.597810794369757E+07, -4.427256705954400E+00,  4.987667008251971E+00, -3.506215230740541E+00,  9.899613312668633E+03,  2.967829408254452E+09, -8.966614663560517E-01,
2458717.500000000, A.D. 2019-Aug-22 00:00:00.0000,  2.471381503106266E+09,  1.642780867405187E+09, -2.623978558216405E+07, -6.600907561397843E+00,  5.635355573632316E+00, -2.278252723229635E+00,  9.899125874627171E+03,  2.967683278005879E+09, -2.357369373764817E+00,
2458718.500000000, A.D. 2019-Aug-23 00:00:00.0000,  2.470764650274283E+09,  1.643291836974086E+09, -2.633719858911848E+07, -7.386009682135715E+00,  6.143368673810970E+00,  1.291952481934291E-01,  9.898359075913420E+03,  2.967453397534693E+09, -2.748871029851350E+00,
2458719.500000000, A.D. 2019-Aug-24 00:00:00.0000,  2.470157570396189E+09,  1.643830823329103E+09, -2.621837703804469E+07, -6.385075874968667E+00,  6.255159117003244E+00,  2.505442876002130E+00,  9.897665460680419E+03,  2.967245456919085E+09, -1.872244435244150E+00,
2458720.500000000, A.D. 2019-Aug-25 00:00:00.0000,  2.469698718163959E+09,  1.644359498616176E+09, -2.594016690711975E+07, -4.107773845806495E+00,  5.915680591715290E+00,  3.657396718202839E+00,  9.897360366105231E+03,  2.967153991866467E+09, -1.726677187801739E-01,
2458721.500000000, A.D. 2019-Aug-26 00:00:00.0000,  2.469451569907482E+09,  1.644844882147748E+09, -2.563880181454468E+07, -1.699176184283942E+00,  5.297237270089810E+00,  3.020761169788056E+00,  9.897562874908990E+03,  2.967214702478513E+09,  1.496235380854118E+00,
2458722.500000000, A.D. 2019-Aug-27 00:00:00.0000,  2.469374009623424E+09,  1.645275697605741E+09, -2.546096934033012E+07, -3.512803947015066E-01,  4.707195303824511E+00,  9.233447402210599E-01,  9.898139156551002E+03,  2.967387467368472E+09,  2.309668751973539E+00,
2458723.500000000, A.D. 2019-Aug-28 00:00:00.0000,  2.469340419461229E+09,  1.645667619143052E+09, -2.549165055286801E+07, -7.254756005951135E-01,  4.435757875605850E+00, -1.597446517091310E+00,  9.898771702745198E+03,  2.967577099946828E+09,  1.869895284894505E+00,
2458724.500000000, A.D. 2019-Aug-29 00:00:00.0000,  2.469203418826936E+09,  1.646055480752059E+09, -2.571297641070855E+07, -2.643088789773987E+00,  4.617736695579451E+00, -3.297475388952590E+00,  9.899115358509805E+03,  2.967680125353206E+09,  3.907142206602896E-01,
2458725.500000000, A.D. 2019-Aug-30 00:00:00.0000,  2.468866050170223E+09,  1.646476296295051E+09, -2.601239770772862E+07, -5.161878783360692E+00,  5.165768734021722E+00, -3.323343260421256E+00,  9.898966477332393E+03,  2.967635491899079E+09, -1.399168932757917E+00,
2458726.500000000, A.D. 2019-Aug-31 00:00:00.0000,  2.468330735852361E+09,  1.646950872875925E+09, -2.623734956029475E+07, -7.022024847796322E+00,  5.807318856574309E+00, -1.647418811553238E+00,  9.898366118912367E+03,  2.967455508972658E+09, -2.603269694605905E+00,
